STARLINK-3610           
1 51812U 22017AW  25345.27222728 -.00000043  00000+0  15414-4 0  9996
2 51812  53.2176   6.0428 0001514  83.8593 276.2572 15.08843937210732
STARLINK-3552           
1 51813U 22017AX  25345.25384078  .00000827  00000+0  70079-4 0  9999
2 51813  53.2195   6.1550 0001574  91.9073 268.2100 15.08836742210734
STARLINK-3599           
1 51814U 22017AY  25344.80118794  .00000157  00000+0  27964-4 0  9991
2 51814  53.2172   8.1559 0001368  89.9377 270.1772 15.08844066210663
STARLINK-3604           
1 51815U 22017AZ  25345.26855570  .00000166  00000+0  28499-4 0  9997
2 51815  53.2179   6.0598 0001359  88.5187 271.5961 15.08834947210735
STARLINK-3603           
1 51816U 22017BA  25345.28425468  .00000519  00000+0  50695-4 0  9994
2 51816  53.2189   6.2304 0001170  70.0004 290.1114 15.08838356210789
STARLINK-3542           
1 51852U 22022A   25345.22347131 -.00001051  00000+0 -47972-4 0  9992
2 51852  53.2192  56.2629 0001114  83.3850 276.7269 15.08839165208408
STARLINK-3541           
1 51854U 22022C   25345.21666578  .00016144  00000+0  10128-2 0  9990
2 51854  53.2177  56.2579 0001695  55.0712 305.0440 15.09462894209662
STARLINK-3545           
1 51855U 22022D   25344.94009927  .00002728  00000+0  18938-3 0  9990
2 51855  53.2163  57.4544 0001460  87.1126 273.0033 15.08844183209574
STARLINK-3568           
1 51856U 22022E   25344.62091306  .00002858  00000+0  19756-3 0  9991
2 51856  53.2176  58.9754 0001411  92.2226 267.8928 15.08840838209603
STARLINK-3571           
1 51857U 22022F   25345.20603222  .00002115  00000+0  15093-3 0  9999
2 51857  53.2191  56.3479 0000974  97.3821 262.7282 15.08838126209667
STARLINK-3563           
1 51858U 22022G   25345.20877663 -.00002177  00000+0 -11884-3 0  9996
2 51858  53.2181  56.3279 0000185  77.4738 282.6275 15.08816880209661
STARLINK-3560           
1 51859U 22022H   25345.15910919  .00001060  00000+0  84695-4 0  9992
2 51859  53.2187  46.5616 0001271  99.0888 261.0248 15.08844969209791
STARLINK-3559           
1 51860U 22022J   25344.90054722  .00001193  00000+0  93046-4 0  9994
2 51860  53.2177  47.7084 0001411  91.4464 268.6690 15.08838729209719
STARLINK-3562           
1 51861U 22022K   25344.88582869 -.00001028  00000+0 -46501-4 0  9993
2 51861  53.2193  47.7770 0001328  85.5282 274.5861 15.08841416209622
STARLINK-3508           
1 51862U 22022L   25344.89686685  .00007327  00000+0  47771-3 0  9991
2 51862  53.2172  47.7277 0001428  83.5550 276.5605 15.08857921209760
STARLINK-3555           
1 51863U 22022M   25344.87847600  .00004738  00000+0  31541-3 0  9997
2 51863  53.2173  47.8110 0001470  87.2294 272.8867 15.08859899209701
