[{"OBJECT_NAME":"STARLINK-3610","OBJECT_ID":"2022-017AW","EPOCH":"2025-12-11T06:32:00.436992","MEAN_MOTION":15.08843937,"ECCENTRICITY":0.00015143,"INCLINATION":53.2176,"RA_OF_ASC_NODE":6.0428,"ARG_OF_PERICENTER":83.8593,"MEAN_ANOMALY":276.2572,"EPHEMERIS_TYPE":0,"CLASSIFICATION_TYPE":"U","NORAD_CAT_ID":51812,"ELEMENT_SET_NO":999,"REV_AT_EPOCH":21073,"BSTAR":1.5413831e-5,"MEAN_MOTION_DOT":-4.3e-7,"MEAN_MOTION_DDOT":0},{"OBJECT_NAME":"STARLINK-3552","OBJECT_ID":"2022-017AX","EPOCH":"2025-12-11T06:05:31.843392","MEAN_MOTION":15.08836742,"ECCENTRICITY":0.00015748,"INCLINATION":53.2195,"RA_OF_ASC_NODE":6.155,"ARG_OF_PERICENTER":91.9073,"MEAN_ANOMALY":268.21,"EPHEMERIS_TYPE":0,"CLASSIFICATION_TYPE":"U","NORAD_CAT_ID":51813,"ELEMENT_SET_NO":999,"REV_AT_EPOCH":21073,"BSTAR":7.0079227e-5,"MEAN_MOTION_DOT":8.27e-6,"MEAN_MOTION_DDOT":0},{"OBJECT_NAME":"STARLINK-3599","OBJECT_ID":"2022-017AY","EPOCH":"2025-12-10T19:13:42.638016","MEAN_MOTION":15.08844066,"ECCENTRICITY":0.00013688,"INCLINATION":53.2172,"RA_OF_ASC_NODE":8.1559,"ARG_OF_PERICENTER":89.9377,"MEAN_ANOMALY":270.1772,"EPHEMERIS_TYPE":0,"CLASSIFICATION_TYPE":"U","NORAD_CAT_ID":51814,"ELEMENT_SET_NO":999,"REV_AT_EPOCH":21066,"BSTAR":2.7963792e-5,"MEAN_MOTION_DOT":1.57e-6,"MEAN_MOTION_DDOT":0},{"OBJECT_NAME":"STARLINK-3604","OBJECT_ID":"2022-017AZ","EPOCH":"2025-12-11T06:26:43.212480","MEAN_MOTION":15.08834947,"ECCENTRICITY":0.00013594,"INCLINATION":53.2179,"RA_OF_ASC_NODE":6.0598,"ARG_OF_PERICENTER":88.5187,"MEAN_ANOMALY":271.5961,"EPHEMERIS_TYPE":0,"CLASSIFICATION_TYPE":"U","NORAD_CAT_ID":51815,"ELEMENT_SET_NO":999,"REV_AT_EPOCH":21073,"BSTAR":2.8498568e-5,"MEAN_MOTION_DOT":1.66e-6,"MEAN_MOTION_DDOT":0},{"OBJECT_NAME":"STARLINK-3603","OBJECT_ID":"2022-017BA","EPOCH":"2025-12-11T06:49:19.604352","MEAN_MOTION":15.08838356,"ECCENTRICITY":0.00011704,"INCLINATION":53.2189,"RA_OF_ASC_NODE":6.2304,"ARG_OF_PERICENTER":70.0004,"MEAN_ANOMALY":290.1114,"EPHEMERIS_TYPE":0,"CLASSIFICATION_TYPE":"U","NORAD_CAT_ID":51816,"ELEMENT_SET_NO":999,"REV_AT_EPOCH":21078,"BSTAR":5.0695284e-5,"MEAN_MOTION_DOT":5.19e-6,"MEAN_MOTION_DDOT":0},{"OBJECT_NAME":"STARLINK-3542","OBJECT_ID":"2022-022A","EPOCH":"2025-12-11T05:21:47.921184","MEAN_MOTION":15.08839165,"ECCENTRICITY":0.00011144,"INCLINATION":53.2192,"RA_OF_ASC_NODE":56.2629,"ARG_OF_PERICENTER":83.385,"MEAN_ANOMALY":276.7269,"EPHEMERIS_TYPE":0,"CLASSIFICATION_TYPE":"U","NORAD_CAT_ID":51852,"ELEMENT_SET_NO":999,"REV_AT_EPOCH":20840,"BSTAR":-4.7972181e-5,"MEAN_MOTION_DOT":-1.051e-5,"MEAN_MOTION_DDOT":0},{"OBJECT_NAME":"STARLINK-3541","OBJECT_ID":"2022-022C","EPOCH":"2025-12-11T05:11:59.923392","MEAN_MOTION":15.09462894,"ECCENTRICITY":0.00016957,"INCLINATION":53.2177,"RA_OF_ASC_NODE":56.2579,"ARG_OF_PERICENTER":55.0712,"MEAN_ANOMALY":305.044,"EPHEMERIS_TYPE":0,"CLASSIFICATION_TYPE":"U","NORAD_CAT_ID":51854,"ELEMENT_SET_NO":999,"REV_AT_EPOCH":20966,"BSTAR":0.0010127581,"MEAN_MOTION_DOT":0.00016144,"MEAN_MOTION_DDOT":0},{"OBJECT_NAME":"STARLINK-3545","OBJECT_ID":"2022-022D","EPOCH":"2025-12-10T22:33:44.576928","MEAN_MOTION":15.08844183,"ECCENTRICITY":0.000146,"INCLINATION":53.2163,"RA_OF_ASC_NODE":57.4544,"ARG_OF_PERICENTER":87.1126,"MEAN_ANOMALY":273.0033,"EPHEMERIS_TYPE":0,"CLASSIFICATION_TYPE":"U","NORAD_CAT_ID":51855,"ELEMENT_SET_NO":999,"REV_AT_EPOCH":20957,"BSTAR":0.00018938,"MEAN_MOTION_DOT":2.728e-5,"MEAN_MOTION_DDOT":0},{"OBJECT_NAME":"STARLINK-3568","OBJECT_ID":"2022-022E","EPOCH":"2025-12-10T14:54:06.888384","MEAN_MOTION":15.08840838,"ECCENTRICITY":0.0001411,"INCLINATION":53.2176,"RA_OF_ASC_NODE":58.9754,"ARG_OF_PERICENTER":92.2226,"MEAN_ANOMALY":267.8928,"EPHEMERIS_TYPE":0,"CLASSIFICATION_TYPE":"U","NORAD_CAT_ID":51856,"ELEMENT_SET_NO":999,"REV_AT_EPOCH":20960,"BSTAR":0.00019756,"MEAN_MOTION_DOT":2.858e-5,"MEAN_MOTION_DDOT":0},{"OBJECT_NAME":"STARLINK-3571","OBJECT_ID":"2022-022F","EPOCH":"2025-12-11T04:56:41.183808","MEAN_MOTION":15.08838126,"ECCENTRICITY":9.742e-5,"INCLINATION":53.2191,"RA_OF_ASC_NODE":56.3479,"ARG_OF_PERICENTER":97.3821,"MEAN_ANOMALY":262.7282,"EPHEMERIS_TYPE":0,"CLASSIFICATION_TYPE":"U","NORAD_CAT_ID":51857,"ELEMENT_SET_NO":999,"REV_AT_EPOCH":20966,"BSTAR":0.00015092546,"MEAN_MOTION_DOT":2.115e-5,"MEAN_MOTION_DDOT":0},{"OBJECT_NAME":"STARLINK-3563","OBJECT_ID":"2022-022G","EPOCH":"2025-12-11T05:00:38.300832","MEAN_MOTION":15.0881688,"ECCENTRICITY":1.854e-5,"INCLINATION":53.2181,"RA_OF_ASC_NODE":56.3279,"ARG_OF_PERICENTER":77.4738,"MEAN_ANOMALY":282.6275,"EPHEMERIS_TYPE":0,"CLASSIFICATION_TYPE":"U","NORAD_CAT_ID":51858,"ELEMENT_SET_NO":999,"REV_AT_EPOCH":20966,"BSTAR":-0.00011883708,"MEAN_MOTION_DOT":-2.177e-5,"MEAN_MOTION_DDOT":0},{"OBJECT_NAME":"STARLINK-3560","OBJECT_ID":"2022-022H","EPOCH":"2025-12-11T03:49:07.034016","MEAN_MOTION":15.08844969,"ECCENTRICITY":0.00012713,"INCLINATION":53.2187,"RA_OF_ASC_NODE":46.5616,"ARG_OF_PERICENTER":99.0888,"MEAN_ANOMALY":261.0248,"EPHEMERIS_TYPE":0,"CLASSIFICATION_TYPE":"U","NORAD_CAT_ID":51859,"ELEMENT_SET_NO":999,"REV_AT_EPOCH":20979,"BSTAR":8.4694591e-5,"MEAN_MOTION_DOT":1.06e-5,"MEAN_MOTION_DDOT":0},{"OBJECT_NAME":"STARLINK-3559","OBJECT_ID":"2022-022J","EPOCH":"2025-12-10T21:36:47.279808","MEAN_MOTION":15.08838729,"ECCENTRICITY":0.0001411,"INCLINATION":53.2177,"RA_OF_ASC_NODE":47.7084,"ARG_OF_PERICENTER":91.4464,"MEAN_ANOMALY":268.669,"EPHEMERIS_TYPE":0,"CLASSIFICATION_TYPE":"U","NORAD_CAT_ID":51860,"ELEMENT_SET_NO":999,"REV_AT_EPOCH":20971,"BSTAR":9.3046e-5,"MEAN_MOTION_DOT":1.193e-5,"MEAN_MOTION_DDOT":0},{"OBJECT_NAME":"STARLINK-3562","OBJECT_ID":"2022-022K","EPOCH":"2025-12-10T21:15:35.598816","MEAN_MOTION":15.08841416,"ECCENTRICITY":0.0001328,"INCLINATION":53.2193,"RA_OF_ASC_NODE":47.777,"ARG_OF_PERICENTER":85.5282,"MEAN_ANOMALY":274.5861,"EPHEMERIS_TYPE":0,"CLASSIFICATION_TYPE":"U","NORAD_CAT_ID":51861,"ELEMENT_SET_NO":999,"REV_AT_EPOCH":20962,"BSTAR":-4.6501e-5,"MEAN_MOTION_DOT":-1.028e-5,"MEAN_MOTION_DDOT":0},{"OBJECT_NAME":"STARLINK-3508","OBJECT_ID":"2022-022L","EPOCH":"2025-12-10T21:31:29.295840","MEAN_MOTION":15.08857921,"ECCENTRICITY":0.0001428,"INCLINATION":53.2172,"RA_OF_ASC_NODE":47.7277,"ARG_OF_PERICENTER":83.555,"MEAN_ANOMALY":276.5605,"EPHEMERIS_TYPE":0,"CLASSIFICATION_TYPE":"U","NORAD_CAT_ID":51862,"ELEMENT_SET_NO":999,"REV_AT_EPOCH":20976,"BSTAR":0.00047771,"MEAN_MOTION_DOT":7.327e-5,"MEAN_MOTION_DDOT":0},{"OBJECT_NAME":"STARLINK-3555","OBJECT_ID":"2022-022M","EPOCH":"2025-12-10T21:05:00.326400","MEAN_MOTION":15.08859899,"ECCENTRICITY":0.000147,"INCLINATION":53.2173,"RA_OF_ASC_NODE":47.811,"ARG_OF_PERICENTER":87.2294,"MEAN_ANOMALY":272.8867,"EPHEMERIS_TYPE":0,"CLASSIFICATION_TYPE":"U","NORAD_CAT_ID":51863,"ELEMENT_SET_NO":999,"REV_AT_EPOCH":20970,"BSTAR":0.00031541,"MEAN_MOTION_DOT":4.738e-5,"MEAN_MOTION_DDOT":0}]
